#cP2015 10  4  0  0  0.00000000      96 ORBIT IGb08 HLM  IGS
## 1865      0.00000000   900.00000000 57299 0.0000000000000
+   32   G01G02G03G04G05G06G07G08G09G10G11G12G13G14G15G16G17
+        G18G19G20G21G22G23G24G25G26G27G28G29G30G31G32  0  0
+          0  0  0  0  0  0  0  0  0  0  0  0  0  0  0  0  0
+          0  0  0  0  0  0  0  0  0  0  0  0  0  0  0  0  0
+          0  0  0  0  0  0  0  0  0  0  0  0  0  0  0  0  0
++         2  2  2  2  2  2  2  2  2  3  2  3  2  2  2  3  2
++         2  2  3  2  2  3  2  3  3  2  2  3  2  2  3  0  0
++         0  0  0  0  0  0  0  0  0  0  0  0  0  0  0  0  0
++         0  0  0  0  0  0  0  0  0  0  0  0  0  0  0  0  0
++         0  0  0  0  0  0  0  0  0  0  0  0  0  0  0  0  0
%c G  cc GPS ccc cccc cccc cccc cccc ccccc ccccc ccccc ccccc
%c cc cc ccc ccc cccc cccc cccc cccc ccccc ccccc ccccc ccccc
%f  1.2500000  1.025000000  0.00000000000  0.000000000000000
%f  0.0000000  0.000000000  0.00000000000  0.000000000000000
%i    0    0    0    0      0      0      0      0         0
%i    0    0    0    0      0      0      0      0         0
/* RAPID ORBIT COMBINATION FROM WEIGHTED AVERAGE OF:        
/* cod emr esa gfz jpl ngs sio usn whu                      
/* REFERENCED TO IGS TIME (IGST) AND TO WEIGHTED MEAN POLE: 
/* PCV:IGS08_1864 OL/AL:FES2004  NONE     Y  ORB:CMB CLK:CMB
*  2015 10  4  6  0  0.00000000
PG01 -21917.556395 -13943.920585  -6100.778137      1.694502  4  8  2  79       
PG02   1974.287019  16960.312029  20821.197349    591.452955  3 10  6 112       
PG03 -13071.588498 -17266.345491  15367.743869     20.980477  3  6  7  79       
PG04 -15019.732126 -17116.402284 -14230.930040    -27.975770  9  8  1  92       
PG05   1831.803088  26271.971281   2440.441166   -188.745870  3 11  5 114       
PG06 -11523.880171  11164.584947  21160.373430     70.215437  6  2  3 124       
PG07 -24920.307018  -4895.793231  -8306.412000    483.602592  5  6  1  91       
PG08  -6686.345242 -13896.855952 -21579.920970     -7.520750     8  5  90       
PG09 -22056.821319   4427.352798  14125.353439     -5.476137  5  3  6  84       
PG10   8276.037098 -20818.156468 -13932.806444      1.791364 11 11  7 135       
PG11 -19756.336370 -11916.243295 -13782.851444   -608.087941  7 10  5  92       
PG12  10601.747380  20193.429370  13682.854045    333.790974  6 10  8 116       
PG13  -4374.346821  17922.578360 -19280.211882   -154.066379  7  9  2  97       
PG14  21893.682336 -14876.545050    826.547228     30.364929  4  7  4  78       
PG15   8894.036665  13217.624348 -21334.840858   -275.000960  7  8  4  98       
PG16    200.110042 -26207.466738   2719.703882    -80.022728  7  8  7 104       
PG17 -21194.261871  15780.388551   1290.350427   -189.855471  7  9  5 119       
PG18  15627.733427  -1866.865146 -20890.297497    439.673809  7  5  6  69       
PG19 -17146.420921  -5386.953195 -19940.007509   -521.044267  8  7  1 102       
PG20  13415.990493  19431.345049 -12236.998639    360.379768  5  9  8  56       
PG21  24346.831537   1522.675553 -10174.703295   -484.291346  5  6  7  55       
PG22  10890.786037 -16407.859980 -17505.361943    397.464461  6  4  5  94       
PG23 -14935.675578  -7514.848515  20889.599996   -136.874810  6  6  5 108       
PG24  20396.077304  14772.840651  -8723.090981     -5.738011  6  7  5 119       
PG25  14932.225543   7350.673182  20637.962804    -47.551843  7  7  7 127       
PG26   5795.728174 -22703.073909  12497.817035    -72.545786 10  7  8 103       
PG27   5572.535102 -19307.667684 -17331.002489     24.733120  3  9  4 112       
PG28 -12105.978063  12454.356176 -19444.669630    471.988979  7  5  6 125       
PG29  21131.509171  -1214.336774  16034.149393    637.738925  6  7  6 114       
PG30 -19941.751633   3581.070258 -17217.280096     35.352479  3  7  5 108       
PG31  11223.082974 -11007.497068  21585.190983    300.516582  4  7  4  95       
PG32  -5355.478720 -25662.153707   5744.639774    -24.696196  6  8  7 117       
*  2015 10  4  6 15  0.00000000
PG01 -21057.104855 -13845.566198  -8777.755849      1.695202  4  8  2  79       
PG02   -254.138971  16249.223982  21443.521778    591.454325  3  9  6 117       
PG03 -13139.340894 -18912.422769  13219.365390     20.979918  3  6  7 100       
PG04 -13369.255607 -16734.666794 -16217.604317    -27.979771  9  8     68       
PG05   1454.329461  25880.853866   5233.686212   -188.742095  3 11  6 121       
PG06 -13716.295441  10255.112049  20294.908149     70.221802  6  1  3 119       
PG07 -25589.037448  -5378.886849  -5605.553614    483.602092  5  6  1 116       
PG08  -4766.107935 -15417.149752 -21052.676639     -7.521693     8  5  85       
PG09 -20840.264856   3176.705692  16160.225908     -5.473480  5  3  5  67       
PG10   9519.920768 -21651.677509 -11630.521939      1.792368 11 11  8 126       
PG11 -18133.049349 -12195.220234 -15705.595717   -608.089547  7 10  5  76       
PG12  10632.546404  21631.633579  11286.416279    333.794128  7 11  8 105       
PG13  -6187.924013  18959.971148 -17726.996267   -154.068963  7 10  1  93       
PG14  21958.970002 -14612.113405  -2046.796873     30.362542  4  6  4  57       
PG15   7068.174439  14794.741459 -20947.619798   -275.002626  7  9  3 102       
PG16    439.128252 -25738.602617   5604.122505    -80.019265  7  8  8 106       
PG17 -21293.821395  15560.991241  -1603.772011   -189.856841  7  8  5 114       
PG18  16066.374393    590.189719 -20662.582902    439.677143  7  5  6  69       
PG19 -15285.120999  -6707.523653 -20998.086945   -521.044798  8  6  2  99       
PG20  13416.402696  20720.028959  -9854.010268    360.382534  5  9  7  72       
PG21  25288.958172   2168.388234  -7649.160335   -484.293500  4  5  7  69       
PG22  11474.309815 -14335.468666 -18895.110616    397.467868  7  2  5 101       
PG23 -13109.481155  -9051.580895  21463.554244   -136.876827  7  7  5  88       
PG24  19248.399230  14613.005491 -11232.589534     -5.739193  6  7  5 126       
PG25  15223.170173   9639.573463  19469.980637    -47.556684  7  7  7 116       
PG26   6248.419873 -21198.866991  14723.865070    -72.556903 10  8  8 110       
PG27   7120.586380 -20373.098440 -15426.759097     24.735832  4  9  5 106       
PG28 -12401.156098  10057.714671 -20584.043278    471.992181  7  5  6 129       
PG29  19649.323143     38.446381  17865.224842    637.740781  7  7  7 107       
PG30 -21555.968282   2636.750419 -15348.079901     35.358168  3  7  4 118       
PG31  13410.569667 -10045.557427  20816.984793    300.515405  4  7  4  95       
PG32  -5149.240585 -26179.926465   3005.463653    -24.685765  7  7  7 156       
*  2015 10  4  6 30  0.00000000
PG01 -19913.672713 -13703.247146 -11305.784932      1.695891  5  8     65       
PG02  -2566.382673  15637.165120  21710.869416    591.455786  2  8  6 121       
PG03 -13236.611891 -20302.881336  10843.305340     20.979356  4  6  6  96       
PG04 -11505.126474 -16377.303753 -17934.602643    -27.983525  9  8     91       
PG05    987.579781  25204.716763   7935.667162   -188.738660  3 11  6 109       
PG06 -15840.901750   9496.713699  19080.033482     70.228227  6  2  3 123       
PG07 -25990.256224  -5723.997701  -2810.151375    483.601160  5  7  2 101       
PG08  -2986.599552 -16980.294545 -20161.776077     -7.522902     8  5  77       
PG09 -19532.374938   1719.090493  17917.065150     -5.470774  5  4  5  83       
PG10  10536.526524 -22345.148844  -9123.438961      1.793275 11 11  8  72       
PG11 -16328.990972 -12549.899849 -17368.480688   -608.091748  7 10  4 104       
PG12  10697.398496  22786.174004   8696.915957    333.796997  7 11  8 112       
PG13  -7787.684132  19981.103219 -15872.932918   -154.071431  7  9  2  73       
PG14  21783.656622 -14148.528953  -4884.467293     30.360292  5  6  3  95       
PG15   5361.612279  16413.956065 -20201.635079   -275.004449  7  9  3 110       
PG16    754.111491 -24962.418933   8389.711220    -80.015713  7  7  8 108       
PG17 -21154.777192  15133.592077  -4469.828383   -189.857944  7  8  4 108       
PG18  16603.388725   2975.078234 -20063.677014    439.680367  7  5  7  77       
PG19 -13418.163862  -8189.783348 -21705.387821   -521.045353  8  6  2  99       
PG20  13395.752136  21742.866436  -7301.790904    360.385299  6 10  7  64       
PG21  25977.579435   2678.725964  -4991.138943   -484.296461  4  4  7  66       
PG22  12184.091298 -12156.751094 -19951.801187    397.470757  7  3  6  90       
PG23 -11328.201698 -10711.329154  21675.145673   -136.878962  7  8  5 113       
PG24  17832.990303  14435.212022 -13550.704866     -5.739719  6  8  5 114       
PG25  15606.115308  11758.992216  17965.750922    -47.561508  7  7  7 119       
PG26   6831.555830 -19488.503345  16696.407793    -72.568055  9  8  8 107       
PG27   8441.088274 -21362.408100 -13256.082875     24.738596  4  9  5  98       
PG28 -12844.354130   7569.280077 -21348.107207    471.994344  6  5  5 123       
PG29  18090.775013   1490.581637  19388.755650    637.742516  7  6  7 101       
PG30 -23005.992242   1859.899274 -13215.715918     35.363817  3  8  4 109       
PG31  15545.015370  -9240.943602  19697.051633    300.514049  4  7  4 102       
PG32  -4927.858767 -26401.716943    216.203076    -24.675037  7  8  7 117       
EOF
